{"type":"FeatureCollection","features":[{"type":"Feature","properties":{"county":"Bungoma"},"geometry":{"type":"Polygon","coordinates":[[[34.6203,1.1002],[34.6329,1.0910],[34.6611,1.0812],[34.6522,1.0540],[34.7401,0.9374],[34.7681,0.9210],[34.7835,0.9236],[34.7996,0.9104],[34.7996,0.9020],[34.7879,0.8900],[34.7966,0.8658],[34.7959,0.8584],[34.8059,0.8406],[34.8104,0.8250],[34.8099,0.8068],[34.8710,0.8238],[34.9269,0.8528],[34.9346,0.8534],[34.9431,0.8688],[34.9672,0.8724],[34.9663,0.8774],[34.9882,0.8842],[34.9859,0.8784],[35.0197,0.8860],[35.0141,0.8608],[35.0255,0.8506],[35.0275,0.8396],[35.0255,0.8306],[35.0330,0.8198],[35.0427,0.8170],[35.0519,0.8012],[35.0629,0.7956],[35.0678,0.7803],[35.0661,0.7633],[35.0626,0.7594],[35.0542,0.7618],[35.0449,0.7589],[35.0395,0.7529],[35.0401,0.7466],[35.0321,0.7496],[35.0242,0.7422],[35.0125,0.7518],[35.0004,0.7424],[34.9943,0.7446],[34.9895,0.7512],[34.9785,0.7545],[34.9570,0.7478],[34.9562,0.7507],[34.9491,0.7502],[34.9407,0.7390],[34.9288,0.7375],[34.9229,0.7244],[34.9296,0.7090],[34.9281,0.7020],[34.9093,0.6846],[34.8992,0.6848],[34.8928,0.6885],[34.8826,0.6822],[34.8638,0.6830],[34.8577,0.6724],[34.8457,0.6668],[34.8347,0.6454],[34.8361,0.6353],[34.8334,0.6257],[34.8037,0.6037],[34.8012,0.5967],[34.8108,0.5869],[34.7973,0.5826],[34.7665,0.5628],[34.7659,0.5549],[34.7599,0.5464],[34.7485,0.5348],[34.7393,0.5317],[34.7359,0.5201],[34.7257,0.5090],[34.7171,0.5090],[34.7103,0.5034],[34.7015,0.5056],[34.6903,0.4892],[34.6902,0.4824],[34.6872,0.4846],[34.6769,0.4822],[34.6788,0.4716],[34.6688,0.4595],[34.6611,0.4592],[34.6579,0.4536],[34.6521,0.4538],[34.6453,0.4492],[34.6339,0.4512],[34.6313,0.4594],[34.6276,0.4606],[34.6174,0.4528],[34.6156,0.4420],[34.6059,0.4490],[34.5931,0.4438],[34.5908,0.4380],[34.5935,0.4306],[34.5897,0.4212],[34.5819,0.4300],[34.5809,0.4530],[34.5647,0.4564],[34.5505,0.4674],[34.5371,0.4586],[34.5369,0.4502],[34.5312,0.4436],[34.5177,0.4482],[34.5095,0.4554],[34.4957,0.4576],[34.4949,0.4660],[34.4843,0.4824],[34.4743,0.4798],[34.4606,0.4670],[34.4489,0.4664],[34.4398,0.4618],[34.4299,0.4646],[34.4169,0.4738],[34.4071,0.4738],[34.3928,0.4664],[34.3895,0.4698],[34.3855,0.4862],[34.3868,0.4930],[34.3894,0.4962],[34.4047,0.4988],[34.4089,0.5030],[34.4083,0.5076],[34.3883,0.5402],[34.3826,0.5418],[34.3689,0.5592],[34.3771,0.5762],[34.3718,0.5852],[34.3710,0.6040],[34.3776,0.6078],[34.3843,0.6402],[34.4199,0.6592],[34.4097,0.6796],[34.4158,0.6874],[34.4055,0.7236],[34.4183,0.7222],[34.4315,0.7252],[34.4343,0.7420],[34.4246,0.7554],[34.4129,0.7600],[34.4033,0.7536],[34.3977,0.7548],[34.3823,0.7716],[34.3699,0.7706],[34.3629,0.7758],[34.3731,0.7848],[34.3768,0.7930],[34.3843,0.7932],[34.3865,0.8018],[34.3975,0.8000],[34.4158,0.8098],[34.4089,0.8232],[34.4103,0.8306],[34.4245,0.8504],[34.4421,0.8556],[34.4462,0.8614],[34.4470,0.8756],[34.4523,0.8890],[34.4509,0.8976],[34.4642,0.9094],[34.4793,0.9360],[34.4893,0.9798],[34.4882,1.0046],[34.4918,1.0302],[34.4999,1.0590],[34.5033,1.0676],[34.5141,1.0792],[34.5225,1.0988],[34.5308,1.1034],[34.5751,1.0990],[34.5777,1.1028],[34.5797,1.1478],[34.6203,1.1002]]]}},{"type":"Feature","properties":{"county":"Busia"},"geometry":{"type":"Polygon","coordinates":[[[34.3691,0.7706],[34.3823,0.7716],[34.3978,0.7538],[34.4058,0.7540],[34.4122,0.7600],[34.4246,0.7554],[34.4340,0.7426],[34.4349,0.7340],[34.4315,0.7260],[34.4197,0.7226],[34.4053,0.7236],[34.4158,0.6874],[34.4097,0.6794],[34.4199,0.6592],[34.3845,0.6404],[34.3793,0.6126],[34.3707,0.6007],[34.3718,0.5852],[34.3771,0.5762],[34.3691,0.5604],[34.3827,0.5418],[34.3906,0.5369],[34.4091,0.5030],[34.4045,0.4986],[34.3895,0.4962],[34.3869,0.4930],[34.3855,0.4862],[34.3928,0.4664],[34.3892,0.4598],[34.3693,0.4556],[34.3653,0.4394],[34.3486,0.4268],[34.3463,0.4216],[34.3635,0.4024],[34.3789,0.4030],[34.3862,0.3956],[34.4091,0.3828],[34.4213,0.3716],[34.4210,0.3682],[34.3964,0.3586],[34.3853,0.3498],[34.3829,0.3162],[34.3659,0.3020],[34.3350,0.3084],[34.2893,0.3056],[34.2761,0.3082],[34.2656,0.3058],[34.2523,0.3110],[34.2473,0.3086],[34.2357,0.2896],[34.2056,0.2828],[34.2041,0.2610],[34.2020,0.2656],[34.1873,0.2736],[34.1751,0.2932],[34.1601,0.2984],[34.1591,0.2884],[34.1391,0.2550],[34.1177,0.2408],[34.1167,0.2160],[34.1065,0.1872],[34.1124,0.1730],[34.1145,0.1426],[34.1123,0.1342],[34.1037,0.1240],[34.1055,0.1332],[34.1019,0.1340],[34.0911,0.1244],[34.0729,0.1166],[34.0743,0.1024],[34.0662,0.0870],[34.0427,-0.0021],[34.0286,-0.0213],[34.0163,-0.0300],[33.9498,-0.0289],[33.9113,0.1046],[34.0220,0.2546],[34.0250,0.2672],[34.0401,0.2738],[34.0424,0.2910],[34.0474,0.2922],[34.0531,0.3066],[34.0599,0.3106],[34.0585,0.3214],[34.0715,0.3230],[34.0813,0.3306],[34.0814,0.3338],[34.0989,0.3484],[34.0993,0.3548],[34.1069,0.3648],[34.1087,0.3734],[34.1047,0.3956],[34.0999,0.4118],[34.0897,0.4246],[34.0899,0.4554],[34.1113,0.4758],[34.1201,0.4802],[34.1181,0.5072],[34.1239,0.5136],[34.1187,0.5200],[34.1285,0.5368],[34.1279,0.5560],[34.1392,0.5830],[34.1431,0.5818],[34.1525,0.5862],[34.1774,0.6064],[34.1868,0.6064],[34.1859,0.6102],[34.1983,0.6246],[34.2175,0.6246],[34.2203,0.6294],[34.2371,0.6274],[34.2423,0.6324],[34.2512,0.6296],[34.2627,0.6372],[34.2761,0.6406],[34.2793,0.6462],[34.2807,0.6644],[34.2777,0.6774],[34.3118,0.6950],[34.3081,0.7302],[34.3153,0.7618],[34.3585,0.7754],[34.3691,0.7706]]]}},{"type":"Feature","properties":{"county":"Homa Bay"},"geometry":{"type":"Polygon","coordinates":[[[34.7615,-0.3121],[34.7703,-0.3129],[34.7849,-0.3232],[34.7885,-0.3317],[34.7849,-0.3363],[34.7861,-0.3395],[34.7929,-0.3437],[34.7941,-0.3501],[34.7988,-0.3538],[34.8099,-0.3541],[34.8193,-0.3668],[34.8173,-0.3705],[34.8233,-0.3739],[34.8248,-0.3860],[34.8284,-0.3885],[34.8555,-0.3926],[34.8627,-0.3987],[34.8681,-0.3953],[34.8869,-0.3974],[34.8917,-0.4023],[34.8941,-0.3955],[34.9158,-0.3866],[34.9149,-0.4029],[34.9267,-0.4032],[34.9309,-0.4118],[34.9517,-0.4165],[34.9769,-0.4109],[34.9852,-0.4142],[35.0029,-0.4058],[35.0101,-0.3935],[35.0178,-0.3974],[35.0211,-0.4102],[35.0017,-0.4285],[34.9675,-0.4429],[34.9409,-0.4654],[34.9075,-0.4820],[34.8811,-0.4888],[34.8515,-0.5116],[34.8184,-0.5200],[34.7891,-0.5335],[34.7692,-0.5348],[34.7612,-0.5492],[34.7487,-0.5597],[34.7127,-0.5600],[34.7114,-0.5675],[34.7027,-0.5764],[34.6959,-0.5926],[34.6859,-0.6031],[34.6601,-0.6045],[34.6519,-0.6175],[34.6500,-0.6269],[34.6441,-0.6333],[34.6375,-0.6616],[34.6146,-0.6532],[34.5936,-0.6515],[34.5839,-0.6539],[34.5795,-0.6612],[34.5581,-0.6677],[34.5599,-0.6742],[34.5535,-0.6777],[34.5521,-0.6835],[34.5405,-0.6945],[34.5349,-0.7053],[34.5325,-0.7274],[34.5358,-0.7310],[34.5325,-0.7430],[34.4863,-0.7889],[34.4650,-0.8382],[34.4642,-0.8644],[34.4288,-0.8372],[34.3911,-0.8187],[34.3881,-0.8188],[34.3887,-0.8225],[34.3934,-0.8315],[34.3821,-0.8484],[34.3749,-0.8480],[34.3673,-0.8541],[34.3421,-0.8574],[34.3378,-0.8635],[34.3226,-0.8674],[34.3093,-0.8550],[34.3002,-0.8397],[34.2849,-0.8270],[34.2709,-0.8264],[34.2543,-0.8205],[34.2535,-0.8133],[34.2403,-0.7977],[34.2349,-0.7863],[34.2141,-0.7694],[34.2006,-0.7447],[34.1909,-0.7481],[34.1699,-0.7651],[34.1522,-0.7699],[34.1419,-0.7795],[34.1189,-0.7805],[34.0883,-0.7870],[34.0849,-0.7898],[34.0803,-0.8076],[33.9265,-0.8072],[33.9177,-0.5702],[33.9251,-0.4683],[33.9484,-0.3404],[34.2417,-0.3426],[34.2713,-0.4177],[34.2814,-0.4268],[34.2944,-0.4310],[34.3179,-0.4246],[34.4224,-0.3372],[34.5308,-0.2730],[34.7042,-0.2592],[34.7557,-0.2923],[34.7615,-0.3121]]]}},{"type":"Feature","properties":{"county":"Kakamega"},"geometry":{"type":"Polygon","coordinates":[[[35.0449,0.9002],[35.0643,0.8960],[35.0767,0.8970],[35.0823,0.8920],[35.0861,0.8822],[35.1005,0.8742],[35.1038,0.8736],[35.1132,0.8804],[35.1167,0.8506],[35.1259,0.8235],[35.1323,0.8288],[35.1439,0.8268],[35.1449,0.7468],[35.1467,0.7388],[35.1550,0.7394],[35.1558,0.6826],[35.1527,0.6676],[35.1555,0.6612],[35.1245,0.6522],[35.1182,0.6468],[35.1171,0.6412],[35.1035,0.6446],[35.0957,0.6344],[35.0859,0.6286],[35.0568,0.6302],[35.0415,0.6392],[35.0408,0.6314],[35.0267,0.6116],[35.0003,0.6362],[34.9941,0.6286],[34.9801,0.6246],[34.9671,0.6096],[34.9451,0.6066],[34.9201,0.5898],[34.9080,0.5944],[34.8983,0.6042],[34.8913,0.6056],[34.8977,0.5980],[34.8530,0.5464],[34.9077,0.5026],[34.9101,0.4884],[34.9245,0.4748],[34.9567,0.4148],[34.9555,0.3684],[34.9483,0.3560],[34.9493,0.3518],[34.9371,0.3606],[34.9382,0.3500],[34.9439,0.3198],[34.9788,0.2406],[34.9583,0.2392],[34.9445,0.2082],[34.9296,0.2072],[34.9251,0.1982],[34.9067,0.1948],[34.8942,0.2058],[34.8839,0.1968],[34.8739,0.1988],[34.8681,0.1944],[34.8623,0.1962],[34.8525,0.1838],[34.8449,0.1814],[34.8168,0.1840],[34.8137,0.1814],[34.8176,0.1540],[34.8151,0.1512],[34.8115,0.1510],[34.8049,0.1598],[34.7979,0.1606],[34.7913,0.1558],[34.7853,0.1570],[34.7771,0.1476],[34.7681,0.1490],[34.7625,0.1376],[34.7446,0.1378],[34.7373,0.1470],[34.7225,0.1394],[34.7027,0.1378],[34.7051,0.1308],[34.6940,0.1306],[34.6875,0.1228],[34.6837,0.1222],[34.6779,0.1280],[34.6615,0.1244],[34.6339,0.1264],[34.6209,0.1240],[34.5873,0.1128],[34.5859,0.1036],[34.5756,0.0964],[34.5629,0.0944],[34.5577,0.0892],[34.5557,0.0966],[34.5582,0.1050],[34.5479,0.1136],[34.5519,0.1164],[34.5557,0.1274],[34.5455,0.1364],[34.5333,0.1324],[34.5267,0.1230],[34.5139,0.1256],[34.5098,0.1162],[34.5009,0.1228],[34.4990,0.1190],[34.5033,0.1124],[34.4968,0.1078],[34.4932,0.1002],[34.4751,0.1024],[34.4751,0.1102],[34.4791,0.1122],[34.4769,0.1158],[34.4595,0.1208],[34.4577,0.1242],[34.4585,0.1280],[34.4727,0.1290],[34.4835,0.1362],[34.4838,0.1494],[34.4697,0.1550],[34.4395,0.1444],[34.4351,0.1438],[34.4267,0.1490],[34.4418,0.1636],[34.4271,0.1828],[34.4371,0.1994],[34.4309,0.2110],[34.4119,0.1964],[34.4039,0.1848],[34.3855,0.1770],[34.3925,0.2036],[34.3911,0.2144],[34.3848,0.2264],[34.3978,0.2312],[34.4011,0.2580],[34.3895,0.2728],[34.3978,0.2802],[34.3950,0.2864],[34.3745,0.3060],[34.3837,0.3190],[34.3856,0.3504],[34.4009,0.3606],[34.4215,0.3690],[34.4057,0.3856],[34.3861,0.3956],[34.3789,0.4030],[34.3635,0.4024],[34.3455,0.4224],[34.3477,0.4262],[34.3653,0.4392],[34.3693,0.4556],[34.3892,0.4598],[34.3928,0.4664],[34.4070,0.4738],[34.4207,0.4726],[34.4367,0.4614],[34.4489,0.4664],[34.4606,0.4670],[34.4743,0.4798],[34.4843,0.4824],[34.4949,0.4660],[34.4957,0.4576],[34.5095,0.4554],[34.5177,0.4482],[34.5313,0.4436],[34.5369,0.4502],[34.5370,0.4586],[34.5505,0.4674],[34.5647,0.4564],[34.5783,0.4550],[34.5809,0.4522],[34.5819,0.4300],[34.5905,0.4236],[34.5931,0.4282],[34.5908,0.4366],[34.5931,0.4438],[34.6057,0.4490],[34.6157,0.4420],[34.6174,0.4528],[34.6276,0.4606],[34.6312,0.4594],[34.6339,0.4512],[34.6453,0.4492],[34.6521,0.4538],[34.6579,0.4536],[34.6611,0.4592],[34.6688,0.4596],[34.6788,0.4716],[34.6769,0.4822],[34.6873,0.4846],[34.6903,0.4824],[34.6901,0.4890],[34.7015,0.5056],[34.7103,0.5034],[34.7171,0.5090],[34.7257,0.5092],[34.7359,0.5200],[34.7393,0.5318],[34.7485,0.5348],[34.7598,0.5464],[34.7659,0.5550],[34.7665,0.5628],[34.7973,0.5826],[34.8107,0.5870],[34.8013,0.5968],[34.8037,0.6036],[34.8333,0.6258],[34.8361,0.6354],[34.8347,0.6454],[34.8457,0.6668],[34.8577,0.6724],[34.8638,0.6830],[34.8826,0.6822],[34.8927,0.6884],[34.8992,0.6848],[34.9093,0.6846],[34.9279,0.7016],[34.9296,0.7090],[34.9229,0.7242],[34.9288,0.7376],[34.9407,0.7390],[34.9491,0.7502],[34.9563,0.7508],[34.9570,0.7478],[34.9785,0.7544],[34.9893,0.7514],[34.9971,0.7430],[35.0062,0.7448],[35.0125,0.7518],[35.0242,0.7422],[35.0321,0.7496],[35.0401,0.7466],[35.0394,0.7528],[35.0449,0.7590],[35.0543,0.7618],[35.0626,0.7594],[35.0661,0.7632],[35.0676,0.7802],[35.0648,0.7922],[35.0590,0.7988],[35.0519,0.8010],[35.0429,0.8168],[35.0303,0.8226],[35.0253,0.8318],[35.0277,0.8398],[35.0259,0.8492],[35.0141,0.8608],[35.0227,0.8924],[35.0317,0.8934],[35.0449,0.9002]]]}},{"type":"Feature","properties":{"county":"Kisii"},"geometry":{"type":"Polygon","coordinates":[[[34.7869,-0.6758],[34.7963,-0.6902],[34.8089,-0.6882],[34.8209,-0.6941],[34.8243,-0.7038],[34.8349,-0.7084],[34.8419,-0.7165],[34.8687,-0.7348],[34.9021,-0.7512],[34.9077,-0.7609],[34.9223,-0.7619],[34.9461,-0.7767],[35.0125,-0.8893],[34.6774,-0.9734],[34.6641,-0.9729],[34.6495,-0.9659],[34.6434,-0.9690],[34.6345,-0.9654],[34.6235,-0.9460],[34.6225,-0.9380],[34.6261,-0.9251],[34.6151,-0.8895],[34.6182,-0.8733],[34.6113,-0.8594],[34.6109,-0.8434],[34.6226,-0.8409],[34.6257,-0.8291],[34.6235,-0.8249],[34.6267,-0.7569],[34.6309,-0.7413],[34.6289,-0.7320],[34.6433,-0.7059],[34.6355,-0.6689],[34.6449,-0.6329],[34.6517,-0.6232],[34.6528,-0.6150],[34.6607,-0.6056],[34.6859,-0.6031],[34.6959,-0.5926],[34.7027,-0.5764],[34.7095,-0.5708],[34.7125,-0.5605],[34.7255,-0.5613],[34.7311,-0.5581],[34.7521,-0.5597],[34.7695,-0.5350],[34.7891,-0.5335],[34.7949,-0.5283],[34.8184,-0.5200],[34.8499,-0.5124],[34.8587,-0.5052],[34.8677,-0.5059],[34.8703,-0.5079],[34.8717,-0.5373],[34.8790,-0.5611],[34.8737,-0.5756],[34.8798,-0.5859],[34.8798,-0.5925],[34.8909,-0.6058],[34.8905,-0.6107],[34.8879,-0.6139],[34.8743,-0.6080],[34.8665,-0.6084],[34.8555,-0.6003],[34.8443,-0.5982],[34.8353,-0.6059],[34.8303,-0.6178],[34.8140,-0.6383],[34.8101,-0.6605],[34.8121,-0.6664],[34.7927,-0.6668],[34.7869,-0.6758]],[[34.7869,-0.6758],[34.7833,-0.6749],[34.7793,-0.6768],[34.7851,-0.6803],[34.7869,-0.6758]]]}},{"type":"Feature","properties":{"county":"Kisumu"},"geometry":{"type":"Polygon","coordinates":[[[34.8143,-0.0015],[34.8082,-0.0211],[34.8283,-0.0281],[34.9171,-0.0270],[34.9238,-0.0366],[34.9551,-0.0307],[34.9533,-0.0275],[34.9583,-0.0270],[34.9647,-0.0326],[34.9788,-0.0245],[34.9891,-0.0240],[34.9903,-0.0201],[35.0067,-0.0282],[35.0079,-0.0514],[35.0105,-0.0541],[35.0593,-0.0544],[35.0659,-0.0666],[35.0743,-0.0564],[35.0921,-0.0445],[35.0972,-0.0304],[35.1035,-0.0235],[35.1037,-0.0052],[35.1509,-0.0365],[35.1583,-0.0362],[35.1630,-0.0311],[35.1939,-0.0261],[35.2073,-0.0293],[35.2217,-0.0373],[35.2271,-0.0660],[35.2269,-0.1074],[35.2347,-0.1210],[35.2543,-0.1207],[35.2705,-0.1540],[35.2791,-0.1470],[35.2966,-0.1764],[35.3313,-0.1771],[35.3317,-0.1920],[35.3425,-0.2397],[35.3147,-0.2494],[35.3059,-0.2404],[35.2720,-0.2378],[35.2629,-0.2324],[35.2629,-0.2251],[35.2453,-0.2040],[35.2352,-0.1969],[35.2230,-0.1952],[35.2155,-0.1753],[35.2039,-0.1666],[35.1865,-0.1622],[35.1837,-0.1647],[35.1637,-0.1637],[35.1575,-0.1663],[35.1397,-0.1625],[35.1333,-0.1566],[35.1262,-0.1605],[35.1038,-0.2018],[35.0739,-0.2093],[35.0647,-0.2172],[35.0579,-0.2388],[35.0495,-0.3002],[35.0225,-0.3257],[35.0083,-0.3341],[35.0054,-0.3581],[35.0098,-0.3937],[35.0026,-0.4058],[34.9860,-0.4140],[34.9769,-0.4109],[34.9506,-0.4159],[34.9309,-0.4117],[34.9299,-0.4045],[34.9149,-0.4029],[34.9158,-0.3861],[34.8884,-0.3986],[34.8726,-0.3957],[34.8632,-0.3974],[34.8555,-0.3926],[34.8284,-0.3885],[34.8115,-0.3547],[34.8021,-0.3550],[34.7857,-0.3383],[34.7879,-0.3266],[34.7853,-0.3236],[34.7713,-0.3137],[34.7609,-0.3113],[34.7557,-0.2923],[34.7041,-0.2592],[34.5308,-0.2730],[34.4838,-0.3010],[34.4323,-0.1465],[34.4171,-0.0913],[34.4194,-0.0788],[34.4252,-0.0702],[34.4553,-0.0487],[34.4851,-0.0335],[34.5361,-0.0180],[34.5491,-0.0238],[34.5537,-0.0218],[34.5637,-0.0241],[34.5626,-0.0379],[34.5675,-0.0405],[34.5773,-0.0380],[34.5837,-0.0331],[34.5922,-0.0074],[34.5897,4.8081e-05],[34.6038,0.0100],[34.6135,-0.0003],[34.6315,0.0016],[34.6723,-0.0159],[34.6890,-0.0115],[34.6962,-0.0206],[34.7097,-0.0201],[34.7179,-0.0092],[34.7261,-0.0071],[34.7395,-0.0241],[34.7457,-0.0239],[34.7521,-0.0323],[34.7655,-0.0174],[34.7799,-0.0181],[34.8049,0.0086],[34.8229,0.0220],[34.8305,0.0220],[34.8143,-0.0015]]]}},{"type":"Feature","properties":{"county":"Migori"},"geometry":{"type":"Polygon","coordinates":[[[34.5885,-0.6522],[34.6259,-0.6566],[34.6353,-0.6629],[34.6420,-0.7053],[34.6295,-0.7264],[34.6307,-0.7417],[34.6237,-0.7917],[34.6257,-0.8291],[34.6218,-0.8415],[34.6099,-0.8444],[34.6113,-0.8594],[34.6177,-0.8738],[34.6151,-0.8876],[34.6240,-0.9245],[34.6235,-0.9460],[34.6345,-0.9654],[34.6413,-0.9683],[34.5905,-1.0175],[34.5919,-1.0364],[34.6011,-1.0585],[34.6185,-1.0774],[34.6146,-1.0832],[34.6149,-1.0894],[34.6201,-1.0972],[34.6223,-1.1138],[34.6303,-1.1254],[34.6326,-1.1383],[34.6253,-1.1561],[34.6411,-1.1656],[34.6541,-1.1784],[34.6541,-1.1875],[34.6713,-1.1998],[34.6735,-1.2113],[34.6799,-1.2142],[34.6868,-1.2127],[34.6885,-1.2165],[34.6993,-1.2707],[34.7315,-1.3893],[34.1500,-1.0605],[34.1362,-1.0503],[34.0803,-1.0218],[34.0460,-1.0458],[34.0408,-1.0461],[34.0341,-1.0426],[34.0293,-1.0354],[34.0281,-1.0141],[34.0189,-1.0034],[33.9346,-1.0025],[33.9265,-0.8072],[34.0803,-0.8076],[34.0849,-0.7898],[34.0883,-0.7870],[34.1189,-0.7805],[34.1419,-0.7795],[34.1522,-0.7699],[34.1699,-0.7651],[34.1979,-0.7451],[34.2017,-0.7461],[34.2147,-0.7704],[34.2341,-0.7853],[34.2410,-0.7989],[34.2535,-0.8133],[34.2523,-0.8198],[34.2709,-0.8264],[34.2849,-0.8270],[34.3225,-0.8674],[34.3383,-0.8638],[34.3386,-0.8592],[34.3421,-0.8574],[34.3679,-0.8541],[34.3747,-0.8480],[34.3821,-0.8484],[34.3934,-0.8315],[34.3879,-0.8189],[34.3911,-0.8187],[34.4288,-0.8372],[34.4645,-0.8645],[34.4653,-0.8379],[34.4841,-0.7999],[34.4863,-0.7889],[34.5325,-0.7430],[34.5375,-0.7317],[34.5341,-0.7279],[34.5349,-0.7055],[34.5521,-0.6835],[34.5535,-0.6777],[34.5599,-0.6742],[34.5582,-0.6681],[34.5806,-0.6611],[34.5839,-0.6539],[34.5885,-0.6522]]]}},{"type":"Feature","properties":{"county":"Nyamira"},"geometry":{"type":"Polygon","coordinates":[[[35.0447,-0.4450],[35.0397,-0.4848],[35.0344,-0.4877],[35.0339,-0.4989],[35.0505,-0.4992],[35.0568,-0.5080],[35.0487,-0.5254],[35.0531,-0.5355],[35.0501,-0.5386],[35.0524,-0.5448],[35.0493,-0.5708],[35.0519,-0.5860],[35.0623,-0.6033],[35.0626,-0.6100],[35.0577,-0.6197],[35.0648,-0.6310],[35.0565,-0.6464],[35.0557,-0.6576],[35.0723,-0.6917],[35.0695,-0.6958],[35.0529,-0.7017],[35.0485,-0.7099],[35.0919,-0.8032],[35.0455,-0.8545],[35.0313,-0.8470],[35.0228,-0.8489],[35.0257,-0.8721],[35.0245,-0.8753],[35.0213,-0.8724],[35.0147,-0.8784],[35.0133,-0.8903],[34.9443,-0.7738],[34.9185,-0.7604],[34.9077,-0.7613],[34.8978,-0.7483],[34.8889,-0.7465],[34.8687,-0.7348],[34.8349,-0.7079],[34.8251,-0.7046],[34.8209,-0.6941],[34.8117,-0.6890],[34.7960,-0.6901],[34.7897,-0.6782],[34.7871,-0.6769],[34.7851,-0.6803],[34.7795,-0.6767],[34.7897,-0.6744],[34.7941,-0.6670],[34.8123,-0.6661],[34.8101,-0.6605],[34.8143,-0.6378],[34.8220,-0.6254],[34.8309,-0.6182],[34.8359,-0.6055],[34.8443,-0.5984],[34.8544,-0.5994],[34.8663,-0.6084],[34.8767,-0.6090],[34.8865,-0.6138],[34.8906,-0.6107],[34.8913,-0.6063],[34.8801,-0.5919],[34.8811,-0.5878],[34.8732,-0.5766],[34.8785,-0.5583],[34.8704,-0.5245],[34.8696,-0.5099],[34.8725,-0.5088],[34.8624,-0.5041],[34.8771,-0.4918],[34.9187,-0.4781],[34.9279,-0.4719],[34.9337,-0.4726],[34.9363,-0.4676],[34.9675,-0.4429],[34.9990,-0.4302],[35.0213,-0.4142],[35.0278,-0.4155],[35.0336,-0.4214],[35.0447,-0.4450]]]}},{"type":"Feature","properties":{"county":"Siaya"},"geometry":{"type":"Polygon","coordinates":[[[34.2658,0.3058],[34.2761,0.3082],[34.2894,0.3056],[34.3353,0.3084],[34.3663,0.3016],[34.3718,0.3056],[34.3781,0.3044],[34.3950,0.2864],[34.3963,0.2806],[34.3883,0.2736],[34.4011,0.2580],[34.3992,0.2348],[34.3848,0.2264],[34.3911,0.2144],[34.3923,0.2032],[34.3853,0.1772],[34.4036,0.1852],[34.4119,0.1964],[34.4296,0.2106],[34.4373,0.1996],[34.4274,0.1838],[34.4417,0.1638],[34.4287,0.1504],[34.4303,0.1458],[34.4389,0.1436],[34.4525,0.1508],[34.4699,0.1550],[34.4821,0.1492],[34.4835,0.1362],[34.4727,0.1290],[34.4578,0.1280],[34.4591,0.1206],[34.4769,0.1158],[34.4791,0.1122],[34.4751,0.1102],[34.4751,0.1024],[34.4954,0.1020],[34.4968,0.1084],[34.5033,0.1124],[34.4995,0.1196],[34.5009,0.1228],[34.5083,0.1140],[34.5134,0.1238],[34.5264,0.1230],[34.5333,0.1324],[34.5455,0.1364],[34.5549,0.1246],[34.5513,0.1162],[34.5452,0.1120],[34.5582,0.1050],[34.5551,0.0854],[34.5593,0.0712],[34.5577,0.0536],[34.5599,0.0464],[34.5543,0.0440],[34.5488,0.0180],[34.5429,0.0128],[34.5437,0.0072],[34.5361,0.0034],[34.5423,-0.0048],[34.5355,-0.0146],[34.5257,-0.0222],[34.5069,-0.0288],[34.4918,-0.0304],[34.4721,-0.0419],[34.4613,-0.0439],[34.4315,-0.0640],[34.4187,-0.0795],[34.4169,-0.0874],[34.4287,-0.1280],[34.4291,-0.1384],[34.4837,-0.3011],[34.4224,-0.3372],[34.3179,-0.4246],[34.2979,-0.4308],[34.2814,-0.4268],[34.2713,-0.4177],[34.2417,-0.3419],[33.9484,-0.3404],[33.9837,-0.1312],[33.9498,-0.0289],[34.0163,-0.0300],[34.0285,-0.0215],[34.0427,-0.0021],[34.0668,0.0876],[34.0743,0.1024],[34.0729,0.1166],[34.0911,0.1240],[34.1021,0.1340],[34.1055,0.1332],[34.1037,0.1238],[34.1123,0.1342],[34.1149,0.1476],[34.1115,0.1616],[34.1124,0.1732],[34.1065,0.1870],[34.1167,0.2160],[34.1177,0.2408],[34.1447,0.2596],[34.1607,0.2972],[34.1743,0.2938],[34.1829,0.2844],[34.1876,0.2734],[34.2045,0.2634],[34.2056,0.2828],[34.2357,0.2896],[34.2468,0.3078],[34.2523,0.3110],[34.2658,0.3058]]]}},{"type":"Feature","properties":{"county":"Trans Nzoia"},"geometry":{"type":"Polygon","coordinates":[[[34.9075,1.2814],[34.9057,1.2500],[34.9389,1.2512],[34.9705,1.2462],[34.9946,1.2568],[35.0137,1.2530],[35.0259,1.2318],[35.0443,1.2140],[35.0377,1.2034],[35.0435,1.1940],[35.0621,1.1794],[35.0739,1.1764],[35.0856,1.1672],[35.0885,1.1796],[35.0917,1.1818],[35.1312,1.1854],[35.1522,1.1982],[35.1613,1.1780],[35.2020,1.1170],[35.2183,1.1144],[35.2427,1.0728],[35.2741,1.0600],[35.3135,1.0358],[35.3629,1.0170],[35.3629,1.0086],[35.3441,1.0036],[35.3529,0.9791],[35.3381,0.9674],[35.3467,0.9654],[35.3411,0.9620],[35.3444,0.9466],[35.3605,0.9434],[35.3494,0.9198],[35.3313,0.9314],[35.3068,0.8892],[35.2971,0.9016],[35.2919,0.9148],[35.2783,0.9220],[35.2706,0.9342],[35.2539,0.9392],[35.2360,0.9290],[35.2297,0.9214],[35.2222,0.9190],[35.1937,0.9246],[35.1745,0.9194],[35.1679,0.9214],[35.1475,0.9172],[35.1311,0.9190],[35.1182,0.9064],[35.1143,0.8920],[35.1155,0.8822],[35.1039,0.8735],[35.0862,0.8822],[35.0823,0.8920],[35.0767,0.8970],[35.0643,0.8960],[35.0541,0.9004],[35.0449,0.9002],[35.0317,0.8934],[35.0267,0.8948],[35.0197,0.8860],[34.9859,0.8784],[34.9882,0.8842],[34.9663,0.8774],[34.9672,0.8724],[34.9431,0.8688],[34.9346,0.8534],[34.9269,0.8528],[34.8710,0.8238],[34.8099,0.8068],[34.8118,0.8204],[34.8059,0.8412],[34.7959,0.8580],[34.7966,0.8650],[34.7879,0.8900],[34.8013,0.9052],[34.7987,0.9122],[34.7877,0.9222],[34.7681,0.9210],[34.7401,0.9374],[34.6522,1.0540],[34.6625,1.0810],[34.6331,1.0910],[34.6163,1.1034],[34.5809,1.1478],[34.6107,1.1562],[34.6207,1.1646],[34.6495,1.1772],[34.6635,1.1896],[34.6707,1.2056],[34.7019,1.2134],[34.7445,1.2186],[34.7681,1.2168],[34.7750,1.2206],[34.7943,1.2196],[34.8065,1.2298],[34.8176,1.2486],[34.8195,1.2584],[34.9075,1.2814]]]}},{"type":"Feature","properties":{"county":"Vihiga"},"geometry":{"type":"Polygon","coordinates":[[[34.8978,0.2030],[34.9105,0.1940],[34.9246,0.1982],[34.9166,0.1570],[34.8887,0.1446],[34.8615,0.1198],[34.8579,0.1098],[34.8601,0.0814],[34.8491,0.0662],[34.8494,0.0596],[34.8407,0.0452],[34.8369,0.0304],[34.8303,0.0290],[34.8201,0.0324],[34.8095,0.0264],[34.8079,0.0208],[34.7988,0.0224],[34.7791,0.0054],[34.7645,-0.0015],[34.7583,0.0080],[34.7417,0.0032],[34.7403,-0.0011],[34.7453,-0.0169],[34.7501,-0.0209],[34.7463,-0.0236],[34.7395,-0.0241],[34.7261,-0.0074],[34.7179,-0.0092],[34.7100,-0.0204],[34.6962,-0.0206],[34.6890,-0.0115],[34.6723,-0.0159],[34.6347,0.0008],[34.6135,-0.0003],[34.6038,0.0100],[34.5897,4.8081e-05],[34.5922,-0.0074],[34.5837,-0.0331],[34.5773,-0.0380],[34.5687,-0.0400],[34.5626,-0.0379],[34.5631,-0.0214],[34.5491,-0.0238],[34.5361,-0.0180],[34.5424,-0.0053],[34.5363,0.0034],[34.5437,0.0072],[34.5537,0.0406],[34.5595,0.0466],[34.5593,0.0712],[34.5559,0.0856],[34.5640,0.0950],[34.5753,0.0958],[34.5856,0.1042],[34.5886,0.1132],[34.6339,0.1264],[34.6644,0.1242],[34.6767,0.1276],[34.6829,0.1224],[34.6867,0.1228],[34.6965,0.1312],[34.7039,0.1308],[34.7051,0.1374],[34.7249,0.1408],[34.7363,0.1464],[34.7423,0.1392],[34.7623,0.1376],[34.7691,0.1490],[34.7772,0.1476],[34.7855,0.1556],[34.7974,0.1604],[34.8049,0.1598],[34.8123,0.1512],[34.8162,0.1524],[34.8139,0.1798],[34.8165,0.1836],[34.8261,0.1850],[34.8449,0.1814],[34.8638,0.1962],[34.8718,0.1956],[34.8739,0.1988],[34.8839,0.1968],[34.8913,0.2038],[34.8978,0.2030]]]}}]}